[{"OBJECT_NAME":"STARLINK-5471","OBJECT_ID":"2022-175J","EPOCH":"2026-03-09T07:44:07.895040","MEAN_MOTION":15.08852588,"ECCENTRICITY":0.00015855,"INCLINATION":53.2178,"RA_OF_ASC_NODE":45.7652,"ARG_OF_PERICENTER":85.7722,"MEAN_ANOMALY":274.3451,"EPHEMERIS_TYPE":0,"CLASSIFICATION_TYPE":"U","NORAD_CAT_ID":54766,"ELEMENT_SET_NO":999,"REV_AT_EPOCH":17986,"BSTAR":7.2230928e-5,"MEAN_MOTION_DOT":8.62e-6,"MEAN_MOTION_DDOT":0},{"OBJECT_NAME":"LEMUR-2-AHMED-ASRAR","OBJECT_ID":"2024-149DN","EPOCH":"2026-03-09T17:35:01.338432","MEAN_MOTION":15.10376432,"ECCENTRICITY":0.00016334,"INCLINATION":97.7021,"RA_OF_ASC_NODE":152.9847,"ARG_OF_PERICENTER":18.5035,"MEAN_ANOMALY":341.6253,"EPHEMERIS_TYPE":0,"CLASSIFICATION_TYPE":"U","NORAD_CAT_ID":60576,"ELEMENT_SET_NO":999,"REV_AT_EPOCH":8554,"BSTAR":0.0007977347,"MEAN_MOTION_DOT":0.00013045,"MEAN_MOTION_DDOT":0}]
